{
    "links": {
        "self": "http://www.neowsapp.com/rest/v1/neo/3824082?api_key=iIulBulltgU6a56xZRHN4H3l9WmuAYTsLGpBGhQ2"
    },
    "id": "3824082",
    "neo_reference_id": "3824082",
    "name": "(2018 JB2)",
    "designation": "2018 JB2",
    "nasa_jpl_url": "http://ssd.jpl.nasa.gov/sbdb.cgi?sstr=3824082",
    "absolute_magnitude_h": 24.5,
    "estimated_diameter": {
        "kilometers": {
            "estimated_diameter_min": 0.0334622374,
            "estimated_diameter_max": 0.0748238376
        },
        "meters": {
            "estimated_diameter_min": 33.4622374455,
            "estimated_diameter_max": 74.8238376074
        },
        "miles": {
            "estimated_diameter_min": 0.0207924639,
            "estimated_diameter_max": 0.0464933628
        },
        "feet": {
            "estimated_diameter_min": 109.7842471007,
            "estimated_diameter_max": 245.4850393757
        }
    },
    "is_potentially_hazardous_asteroid": false,
    "close_approach_data": [
        {
            "close_approach_date": "2018-04-24",
            "close_approach_date_full": "2018-Apr-24 14:44",
            "epoch_date_close_approach": 1524581040000,
            "relative_velocity": {
                "kilometers_per_second": "11.7696298062",
                "kilometers_per_hour": "42370.6673024626",
                "miles_per_hour": "26327.4849135774"
            },
            "miss_distance": {
                "astronomical": "0.0689123556",
                "lunar": "26.8069063284",
                "kilometers": "10309141.614442572",
                "miles": "6405803.5581566136"
            },
            "orbiting_body": "Earth"
        }
    ],
    "orbital_data": {
        "orbit_id": "1",
        "orbit_determination_date": "2018-05-12 08:44:36",
        "first_observation_date": "2018-05-09",
        "last_observation_date": "2018-05-12",
        "data_arc_in_days": 3,
        "observations_used": 28,
        "orbit_uncertainty": "9",
        "minimum_orbit_intersection": ".0234029",
        "jupiter_tisserand_invariant": "3.407",
        "epoch_osculation": "2458249.5",
        "eccentricity": ".5573524065579009",
        "semi_major_axis": "2.224557624314139",
        "inclination": "10.48164927882698",
        "ascending_node_longitude": "209.7833744311376",
        "orbital_period": "1211.891995478926",
        "perihelion_distance": ".9846950788759271",
        "perihelion_argument": "329.5139522368186",
        "aphelion_distance": "3.464420169752352",
        "perihelion_time": "2458207.176679775620",
        "mean_anomaly": "12.57240359505432",
        "mean_motion": ".2970561744305706",
        "equinox": "J2000",
        "orbit_class": {
            "orbit_class_type": "APO",
            "orbit_class_description": "Near-Earth asteroid orbits which cross the Earth’s orbit similar to that of 1862 Apollo",
            "orbit_class_range": "a (semi-major axis) > 1.0 AU; q (perihelion) < 1.017 AU"
        }
    },
    "is_sentry_object": false
}